{
    "links": {
        "self": "http://www.neowsapp.com/rest/v1/neo/3359276?api_key=iIulBulltgU6a56xZRHN4H3l9WmuAYTsLGpBGhQ2"
    },
    "id": "3359276",
    "neo_reference_id": "3359276",
    "name": "(2006 WA3)",
    "designation": "2006 WA3",
    "nasa_jpl_url": "http://ssd.jpl.nasa.gov/sbdb.cgi?sstr=3359276",
    "absolute_magnitude_h": 22.3,
    "estimated_diameter": {
        "kilometers": {
            "estimated_diameter_min": 0.0921626549,
            "estimated_diameter_max": 0.2060819612
        },
        "meters": {
            "estimated_diameter_min": 92.1626548503,
            "estimated_diameter_max": 206.0819612321
        },
        "miles": {
            "estimated_diameter_min": 0.057267201,
            "estimated_diameter_max": 0.1280533543
        },
        "feet": {
            "estimated_diameter_min": 302.370924539,
            "estimated_diameter_max": 676.1219416887
        }
    },
    "is_potentially_hazardous_asteroid": false,
    "close_approach_data": [
        {
            "close_approach_date": "2006-05-10",
            "close_approach_date_full": "2006-May-10 08:01",
            "epoch_date_close_approach": 1147248060000,
            "relative_velocity": {
                "kilometers_per_second": "15.4408564684",
                "kilometers_per_hour": "55587.0832863667",
                "miles_per_hour": "34539.6518342427"
            },
            "miss_distance": {
                "astronomical": "0.1560801619",
                "lunar": "60.7151829791",
                "kilometers": "23349259.769495153",
                "miles": "14508557.2500249914"
            },
            "orbiting_body": "Earth"
        },
        {
            "close_approach_date": "2006-11-03",
            "close_approach_date_full": "2006-Nov-03 17:37",
            "epoch_date_close_approach": 1162575420000,
            "relative_velocity": {
                "kilometers_per_second": "12.7429583362",
                "kilometers_per_hour": "45874.6500103474",
                "miles_per_hour": "28504.7235022628"
            },
            "miss_distance": {
                "astronomical": "0.3318003261",
                "lunar": "129.0703268529",
                "kilometers": "49636622.049865407",
                "miles": "30842766.7436883366"
            },
            "orbiting_body": "Earth"
        },
        {
            "close_approach_date": "2148-05-30",
            "close_approach_date_full": "2148-May-30 11:26",
            "epoch_date_close_approach": 5630124360000,
            "relative_velocity": {
                "kilometers_per_second": "13.2304010556",
                "kilometers_per_hour": "47629.4438000146",
                "miles_per_hour": "29595.0841211813"
            },
            "miss_distance": {
                "astronomical": "0.2978087801",
                "lunar": "115.8476154589",
                "kilometers": "44551559.170258387",
                "miles": "27683055.1880722606"
            },
            "orbiting_body": "Earth"
        }
    ],
    "orbital_data": {
        "orbit_id": "7",
        "orbit_determination_date": "2017-04-06 09:07:35",
        "first_observation_date": "2006-11-18",
        "last_observation_date": "2006-11-21",
        "data_arc_in_days": 3,
        "observations_used": 26,
        "orbit_uncertainty": "9",
        "minimum_orbit_intersection": ".0233243",
        "jupiter_tisserand_invariant": "5.125",
        "epoch_osculation": "2454059.5",
        "eccentricity": ".1973881557969521",
        "semi_major_axis": "1.222469635284622",
        "inclination": "23.95077219749784",
        "ascending_node_longitude": "234.7148302022517",
        "orbital_period": "493.6913837976363",
        "perihelion_distance": ".9811686084580176",
        "perihelion_argument": "47.833387532911",
        "aphelion_distance": "1.463770662111226",
        "perihelion_time": "2453906.976632051530",
        "mean_anomaly": "111.2201149614475",
        "mean_motion": ".7292004920781922",
        "equinox": "J2000",
        "orbit_class": {
            "orbit_class_type": "APO",
            "orbit_class_description": "Near-Earth asteroid orbits which cross the Earth’s orbit similar to that of 1862 Apollo",
            "orbit_class_range": "a (semi-major axis) > 1.0 AU; q (perihelion) < 1.017 AU"
        }
    },
    "is_sentry_object": false
}